start=new Date('2023-06-11T00:00:00.000Z').valueOf();
sats=[{"BSTAR":"0.00005687600000","MEAN_MOTION_DDOT":"0.0000000000000","MEAN_MOTION":"15.08842758","PERIAPSIS":"538.874","OBJECT_NAME":"STARLINK-3115","RCS_SIZE":"LARGE","OBJECT_ID":"2021-104AR","EPOCH":"2023-06-10T22:40:37.632864","INCLINATION":"53.2188","TLE_LINE2":"2 49447  53.2188  40.6178 0001248  96.5989 263.5145 15.08842758 87395","CLASSIFICATION_TYPE":"U","SEMIMAJOR_AXIS":"6917.872","ELEMENT_SET_NO":"999","APOAPSIS":"540.600","MEAN_MOTION_DOT":"0.00000617","COUNTRY_CODE":"US","RA_OF_ASC_NODE":"40.6178","TLE_LINE1":"1 49447U 21104AR  23161.94488001  .00000617  00000-0  56876-4 0  9993","ECCENTRICITY":"0.00012480","PERIOD":"95.437","OBJECT_TYPE":"PAYLOAD","LAUNCH_DATE":"2021-11-13","MEAN_ELEMENT_THEORY":"SGP4","SITE":"AFETR","FILE":"3929969","EPHEMERIS_TYPE":"0","ARG_OF_PERICENTER":"96.5989","MEAN_ANOMALY":"263.5145","REV_AT_EPOCH":"8739","TIME_SYSTEM":"UTC","GP_ID":"233652814","CENTER_NAME":"EARTH","DECAY_DATE":null,"REF_FRAME":"TEME","NORAD_CAT_ID":"49447"},{"NORAD_CAT_ID":"49448","REF_FRAME":"TEME","CENTER_NAME":"EARTH","GP_ID":"233653559","DECAY_DATE":null,"TIME_SYSTEM":"UTC","REV_AT_EPOCH":"8735","ARG_OF_PERICENTER":"98.8647","MEAN_ANOMALY":"261.2460","EPHEMERIS_TYPE":"0","LAUNCH_DATE":"2021-11-13","MEAN_ELEMENT_THEORY":"SGP4","OBJECT_TYPE":"PAYLOAD","FILE":"3929969","SITE":"AFETR","PERIOD":"95.438","ECCENTRICITY":"0.00010090","TLE_LINE1":"1 49448U 21104AS  23161.69560907 -.00001168  00000-0 -55344-4 0  9995","RA_OF_ASC_NODE":"41.7852","APOAPSIS":"540.442","MEAN_MOTION_DOT":"-0.00001168","COUNTRY_CODE":"US","SEMIMAJOR_AXIS":"6917.879","ELEMENT_SET_NO":"999","INCLINATION":"53.2176","TLE_LINE2":"2 49448  53.2176  41.7852 0001009  98.8647 261.2460 15.08840520 87351","EPOCH":"2023-06-10T16:41:40.623648","CLASSIFICATION_TYPE":"U","OBJECT_ID":"2021-104AS","OBJECT_NAME":"STARLINK-3097","PERIAPSIS":"539.046","MEAN_MOTION":"15.08840520","RCS_SIZE":"LARGE","BSTAR":"-0.00005534400000","MEAN_MOTION_DDOT":"0.0000000000000"},{"REV_AT_EPOCH":"8739","TIME_SYSTEM":"UTC","DECAY_DATE":null,"CENTER_NAME":"EARTH","GP_ID":"233651813","REF_FRAME":"TEME","NORAD_CAT_ID":"49449","ECCENTRICITY":"0.00013150","PERIOD":"95.437","SITE":"AFETR","FILE":"3929969","OBJECT_TYPE":"PAYLOAD","LAUNCH_DATE":"2021-11-13","MEAN_ELEMENT_THEORY":"SGP4","EPHEMERIS_TYPE":"0","MEAN_ANOMALY":"276.1099","ARG_OF_PERICENTER":"84.0043","ELEMENT_SET_NO":"999","SEMIMAJOR_AXIS":"6917.875","COUNTRY_CODE":"US","MEAN_MOTION_DOT":"-0.00000401","APOAPSIS":"540.649","RA_OF_ASC_NODE":"40.6355","TLE_LINE1":"1 49449U 21104AT  23161.94120277 -.00000401  00000-0 -71127-5 0  9993","MEAN_MOTION_DDOT":"0.0000000000000","BSTAR":"-0.00000711270000","RCS_SIZE":"LARGE","PERIAPSIS":"538.830","MEAN_MOTION":"15.08841875","OBJECT_NAME":"STARLINK-3137","OBJECT_ID":"2021-104AT","CLASSIFICATION_TYPE":"U","EPOCH":"2023-06-10T22:35:19.919328","TLE_LINE2":"2 49449  53.2174  40.6355 0001315  84.0043 276.1099 15.08841875 87394","INCLINATION":"53.2174"},{"RA_OF_ASC_NODE":"40.6027","TLE_LINE1":"1 49450U 21104AU  23161.94951829  .00000584  00000-0  54745-4 0  9996","ELEMENT_SET_NO":"999","SEMIMAJOR_AXIS":"6917.864","MEAN_MOTION_DOT":"0.00000584","COUNTRY_CODE":"US","APOAPSIS":"540.761","OBJECT_ID":"2021-104AU","CLASSIFICATION_TYPE":"U","EPOCH":"2023-06-10T22:47:18.380256","TLE_LINE2":"2 49450  53.2161  40.6027 0001492  94.2793 265.8370 15.08845254 87650","INCLINATION":"53.2161","MEAN_MOTION_DDOT":"0.0000000000000","BSTAR":"0.00005474500000","RCS_SIZE":"LARGE","MEAN_MOTION":"15.08845254","PERIAPSIS":"538.697","OBJECT_NAME":"STARLINK-3127","REF_FRAME":"TEME","NORAD_CAT_ID":"49450","REV_AT_EPOCH":"8765","TIME_SYSTEM":"UTC","DECAY_DATE":null,"GP_ID":"233652063","CENTER_NAME":"EARTH","EPHEMERIS_TYPE":"0","MEAN_ANOMALY":"265.8370","ARG_OF_PERICENTER":"94.2793","ECCENTRICITY":"0.00014920","PERIOD":"95.437","SITE":"AFETR","FILE":"3929969","OBJECT_TYPE":"PAYLOAD","MEAN_ELEMENT_THEORY":"SGP4","LAUNCH_DATE":"2021-11-13"},{"RA_OF_ASC_NODE":"40.6494","TLE_LINE1":"1 49451U 21104AV  23161.93751813  .00000307  00000-0  37387-4 0  9993","ELEMENT_SET_NO":"999","SEMIMAJOR_AXIS":"6917.859","MEAN_MOTION_DOT":"0.00000307","COUNTRY_CODE":"US","APOAPSIS":"540.591","OBJECT_ID":"2021-104AV","CLASSIFICATION_TYPE":"U","EPOCH":"2023-06-10T22:30:01.566432","TLE_LINE2":"2 49451  53.2173  40.6494 0001253 105.1586 254.9544 15.08846998 87398","INCLINATION":"53.2173","MEAN_MOTION_DDOT":"0.0000000000000","BSTAR":"0.00003738700000","RCS_SIZE":"LARGE","MEAN_MOTION":"15.08846998","PERIAPSIS":"538.857","OBJECT_NAME":"STARLINK-3125","REF_FRAME":"TEME","NORAD_CAT_ID":"49451","REV_AT_EPOCH":"8739","TIME_SYSTEM":"UTC","DECAY_DATE":null,"CENTER_NAME":"EARTH","GP_ID":"233653314","EPHEMERIS_TYPE":"0","MEAN_ANOMALY":"254.9544","ARG_OF_PERICENTER":"105.1586","ECCENTRICITY":"0.00012530","PERIOD":"95.437","SITE":"AFETR","FILE":"3929969","OBJECT_TYPE":"PAYLOAD","LAUNCH_DATE":"2021-11-13","MEAN_ELEMENT_THEORY":"SGP4"},{"REV_AT_EPOCH":"8739","TIME_SYSTEM":"UTC","GP_ID":"233653060","CENTER_NAME":"EARTH","DECAY_DATE":null,"REF_FRAME":"TEME","NORAD_CAT_ID":"49452","ECCENTRICITY":"0.00012010","PERIOD":"95.437","OBJECT_TYPE":"PAYLOAD","LAUNCH_DATE":"2021-11-13","MEAN_ELEMENT_THEORY":"SGP4","SITE":"AFETR","FILE":"3929969","EPHEMERIS_TYPE":"0","ARG_OF_PERICENTER":"95.5173","MEAN_ANOMALY":"264.5956","SEMIMAJOR_AXIS":"6917.854","ELEMENT_SET_NO":"999","APOAPSIS":"540.549","MEAN_MOTION_DOT":"0.00000445","COUNTRY_CODE":"US","RA_OF_ASC_NODE":"40.7257","TLE_LINE1":"1 49452U 21104AW  23161.92648229  .00000445  00000-0  46032-4 0  9999","BSTAR":"0.00004603200000","MEAN_MOTION_DDOT":"0.0000000000000","MEAN_MOTION":"15.08848791","PERIAPSIS":"538.888","OBJECT_NAME":"STARLINK-3150","RCS_SIZE":"LARGE","OBJECT_ID":"2021-104AW","EPOCH":"2023-06-10T22:14:08.069856","INCLINATION":"53.2184","TLE_LINE2":"2 49452  53.2184  40.7257 0001201  95.5173 264.5956 15.08848791 87393","CLASSIFICATION_TYPE":"U"},{"APOAPSIS":"540.509","COUNTRY_CODE":"US","MEAN_MOTION_DOT":"-0.00000250","SEMIMAJOR_AXIS":"6917.870","ELEMENT_SET_NO":"999","RA_OF_ASC_NODE":"40.7306","TLE_LINE1":"1 49453U 21104AX  23161.93848796 -.00000250  00000-0  23592-5 0  9994","PERIAPSIS":"538.960","MEAN_MOTION":"15.08843528","OBJECT_NAME":"STARLINK-3129","RCS_SIZE":"LARGE","BSTAR":"0.00000235920000","MEAN_MOTION_DDOT":"0.0000000000000","EPOCH":"2023-06-10T22:31:25.359744","INCLINATION":"53.2168","TLE_LINE2":"2 49453  53.2168  40.7306 0001119  93.1396 266.9725 15.08843528 87393","CLASSIFICATION_TYPE":"U","OBJECT_ID":"2021-104AX","GP_ID":"233652313","CENTER_NAME":"EARTH","DECAY_DATE":null,"REV_AT_EPOCH":"8739","TIME_SYSTEM":"UTC","REF_FRAME":"TEME","NORAD_CAT_ID":"49453","OBJECT_TYPE":"PAYLOAD","MEAN_ELEMENT_THEORY":"SGP4","LAUNCH_DATE":"2021-11-13","SITE":"AFETR","FILE":"3929969","ECCENTRICITY":"0.00011190","PERIOD":"95.437","ARG_OF_PERICENTER":"93.1396","MEAN_ANOMALY":"266.9725","EPHEMERIS_TYPE":"0"},{"NORAD_CAT_ID":"49454","REF_FRAME":"TEME","TIME_SYSTEM":"UTC","REV_AT_EPOCH":"8739","CENTER_NAME":"EARTH","GP_ID":"233652563","DECAY_DATE":null,"EPHEMERIS_TYPE":"0","ARG_OF_PERICENTER":"109.7506","MEAN_ANOMALY":"250.3615","PERIOD":"95.437","ECCENTRICITY":"0.00011960","MEAN_ELEMENT_THEORY":"SGP4","LAUNCH_DATE":"2021-11-13","OBJECT_TYPE":"PAYLOAD","FILE":"3929969","SITE":"AFETR","TLE_LINE1":"1 49454U 21104AY  23161.93384166 -.00000114  00000-0  10951-4 0  9994","RA_OF_ASC_NODE":"40.6679","SEMIMAJOR_AXIS":"6917.863","ELEMENT_SET_NO":"999","APOAPSIS":"540.555","COUNTRY_CODE":"US","MEAN_MOTION_DOT":"-0.00000114","OBJECT_ID":"2021-104AY","TLE_LINE2":"2 49454  53.2168  40.6679 0001196 109.7506 250.3615 15.08845834 87395","INCLINATION":"53.2168","EPOCH":"2023-06-10T22:24:43.919424","CLASSIFICATION_TYPE":"U","BSTAR":"0.00001095100000","MEAN_MOTION_DDOT":"0.0000000000000","OBJECT_NAME":"STARLINK-3160","MEAN_MOTION":"15.08845834","PERIAPSIS":"538.900","RCS_SIZE":"LARGE"},{"PERIOD":"95.437","ECCENTRICITY":"0.00009640","LAUNCH_DATE":"2021-11-13","MEAN_ELEMENT_THEORY":"SGP4","OBJECT_TYPE":"PAYLOAD","FILE":"3929969","SITE":"AFETR","EPHEMERIS_TYPE":"0","ARG_OF_PERICENTER":"93.2800","MEAN_ANOMALY":"266.8303","TIME_SYSTEM":"UTC","REV_AT_EPOCH":"8739","CENTER_NAME":"EARTH","GP_ID":"233652815","DECAY_DATE":null,"NORAD_CAT_ID":"49455","REF_FRAME":"TEME","BSTAR":"0.00007921500000","MEAN_MOTION_DDOT":"0.0000000000000","OBJECT_NAME":"STARLINK-3145","PERIAPSIS":"539.065","MEAN_MOTION":"15.08844315","RCS_SIZE":"LARGE","OBJECT_ID":"2021-104AZ","TLE_LINE2":"2 49455  53.2181  40.7312 0000964  93.2800 266.8303 15.08844315 87391","INCLINATION":"53.2181","EPOCH":"2023-06-10T22:03:32.239296","CLASSIFICATION_TYPE":"U","SEMIMAJOR_AXIS":"6917.867","ELEMENT_SET_NO":"999","APOAPSIS":"540.399","MEAN_MOTION_DOT":"0.00000973","COUNTRY_CODE":"US","TLE_LINE1":"1 49455U 21104AZ  23161.91912314  .00000973  00000-0  79215-4 0  9995","RA_OF_ASC_NODE":"40.7312"},{"FILE":"3929969","SITE":"AFETR","LAUNCH_DATE":"2021-11-13","MEAN_ELEMENT_THEORY":"SGP4","OBJECT_TYPE":"PAYLOAD","PERIOD":"95.437","ECCENTRICITY":"0.00011880","MEAN_ANOMALY":"254.1227","ARG_OF_PERICENTER":"105.9896","EPHEMERIS_TYPE":"0","DECAY_DATE":null,"CENTER_NAME":"EARTH","GP_ID":"233653560","TIME_SYSTEM":"UTC","REV_AT_EPOCH":"8739","NORAD_CAT_ID":"49456","REF_FRAME":"TEME","RCS_SIZE":"LARGE","OBJECT_NAME":"STARLINK-3124","MEAN_MOTION":"15.08850970","PERIAPSIS":"538.890","MEAN_MOTION_DDOT":"0.0000000000000","BSTAR":"0.00007819700000","CLASSIFICATION_TYPE":"U","INCLINATION":"53.2180","TLE_LINE2":"2 49456  53.2180  40.7270 0001188 105.9896 254.1227 15.08850970 87398","EPOCH":"2023-06-10T22:20:48.768864","OBJECT_ID":"2021-104BA","MEAN_MOTION_DOT":"0.00000957","COUNTRY_CODE":"US","APOAPSIS":"540.534","ELEMENT_SET_NO":"999","SEMIMAJOR_AXIS":"6917.847","TLE_LINE1":"1 49456U 21104BA  23161.93112001  .00000957  00000-0  78197-4 0  9993","RA_OF_ASC_NODE":"40.7270"}];
